[{"OBJECT_NAME":"POLYITAN-1","OBJECT_ID":"2014-033AJ","EPOCH":"2026-03-09T22:27:50.258304","MEAN_MOTION":15.29568085,"ECCENTRICITY":0.00093607,"INCLINATION":98.1053,"RA_OF_ASC_NODE":86.0432,"ARG_OF_PERICENTER":127.248,"MEAN_ANOMALY":232.9614,"EPHEMERIS_TYPE":0,"CLASSIFICATION_TYPE":"U","NORAD_CAT_ID":40042,"ELEMENT_SET_NO":999,"REV_AT_EPOCH":63840,"BSTAR":0.00083772474,"MEAN_MOTION_DOT":0.00024003,"MEAN_MOTION_DDOT":0},{"OBJECT_NAME":"STARLINK-31379","OBJECT_ID":"2024-031V","EPOCH":"2026-03-09T20:23:14.907840","MEAN_MOTION":15.30194472,"ECCENTRICITY":0.00011219,"INCLINATION":53.1597,"RA_OF_ASC_NODE":296.2331,"ARG_OF_PERICENTER":89.7443,"MEAN_ANOMALY":270.3686,"EPHEMERIS_TYPE":0,"CLASSIFICATION_TYPE":"U","NORAD_CAT_ID":58984,"ELEMENT_SET_NO":999,"REV_AT_EPOCH":11653,"BSTAR":2.2182322e-5,"MEAN_MOTION_DOT":2.98e-6,"MEAN_MOTION_DDOT":0}]
